OBJECT_NAME,OBJECT_ID,EPOCH,MEAN_MOTION,ECCENTRICITY,INCLINATION,RA_OF_ASC_NODE,ARG_OF_PERICENTER,MEAN_ANOMALY,EPHEMERIS_TYPE,CLASSIFICATION_TYPE,NORAD_CAT_ID,ELEMENT_SET_NO,REV_AT_EPOCH,BSTAR,MEAN_MOTION_DOT,MEAN_MOTION_DDOT
ONEWEB-0211,2021-045A,2026-06-14T14:33:01.131840,13.16196652,.00018257,87.9005,259.5964,121.5634,238.5675,0,U,48767,999,24410,-.24927347E-4,.3E-7,0
ONEWEB-0223,2021-045B,2026-06-14T05:26:56.198112,13.15546510,.0001667,87.9005,259.7796,109.7952,250.3358,0,U,48768,999,24401,.11573E-2,.448E-5,0
ONEWEB-0230,2021-045C,2026-06-14T06:35:22.709760,13.15548434,.0002032,87.9001,259.7838,95.7929,264.3433,0,U,48769,999,24428,.71872E-4,.4E-6,0
ONEWEB-0237,2021-045D,2026-06-14T11:47:57.352992,13.15547090,.00017349,87.9001,259.7424,101.9165,258.2160,0,U,48770,999,24403,.47530523E-3,.192E-5,0
ONEWEB-0235,2021-045E,2026-06-14T13:00:59.530752,13.15548436,.00016093,87.9008,259.7178,107.6285,252.5021,0,U,48771,999,24403,.27714397E-3,.117E-5,0
ONEWEB-0242,2021-045F,2026-06-14T12:51:50.403456,13.15547017,.00017908,87.9010,259.7160,98.5375,261.5959,0,U,48772,999,24407,.10169155E-3,.51E-6,0
ONEWEB-0241,2021-045G,2026-06-14T12:33:36.880128,13.15548871,.00018017,87.8998,259.7370,113.0036,247.1285,0,U,48773,999,24398,-.40373564E-3,-.139E-5,0
ONEWEB-0243,2021-045H,2026-06-14T13:19:14.492640,13.15548575,.00014782,87.9001,259.7429,92.7893,267.3407,0,U,48774,999,24401,.37074354E-3,.152E-5,0
ONEWEB-0222,2021-045J,2026-06-14T12:55:16.815648,13.15548596,.00018137,87.9007,259.7137,106.2312,253.9018,0,U,48775,999,24405,.21477014E-3,.94E-6,0
ONEWEB-0244,2021-045K,2026-06-14T11:43:24.674592,13.15548810,.0001833,87.9015,259.7180,100.8745,259.2591,0,U,48776,999,24461,.49293954E-3,.198E-5,0
ONEWEB-0247,2021-045L,2026-06-14T13:28:21.581760,13.15547437,.00011307,87.9001,259.7362,101.3961,258.7297,0,U,48777,999,24406,.39560242E-3,.162E-5,0
ONEWEB-0245,2021-045M,2026-06-14T13:21:30.856896,13.15547973,.00019206,87.9010,259.7160,106.0670,254.0672,0,U,48778,999,24403,.40702694E-3,.166E-5,0
ONEWEB-0229,2021-045N,2026-06-14T13:14:40.648704,13.15548789,.00018426,87.9010,259.7150,98.4771,261.6568,0,U,48779,999,24406,.41322965E-3,.168E-5,0
ONEWEB-0228,2021-045P,2026-06-14T06:44:40.769952,13.15546580,.0001894,87.9015,259.7612,102.2457,257.8885,0,U,48780,999,24394,-.18723E-3,-.58E-6,0
ONEWEB-0232,2021-045Q,2026-06-14T13:26:04.215264,13.15549622,.00019662,87.9013,259.7069,102.9246,257.2104,0,U,48781,999,24430,.16611245E-3,.75E-6,0
ONEWEB-0231,2021-045R,2026-06-14T12:54:08.093952,13.15548586,.00017919,87.9004,259.7245,105.8730,254.2598,0,U,48782,999,24399,.92433034E-4,.48E-6,0
ONEWEB-0234,2021-045S,2026-06-14T06:30:36.815616,13.15549058,.0002682,87.9011,259.7592,112.0487,248.0929,0,U,48783,999,24409,.83648E-5,.16E-6,0
ONEWEB-0238,2021-045T,2026-06-14T06:30:59.650272,13.15547079,.0002295,87.9016,259.7534,107.6949,252.4432,0,U,48784,999,24399,.10845E-3,.54E-6,0
ONEWEB-0240,2021-045U,2026-06-14T12:30:10.390176,13.15547614,.00018644,87.9014,259.7142,110.4500,249.6830,0,U,48785,999,24405,-.3042349E-3,-.102E-5,0
ONEWEB-0246,2021-045V,2026-06-14T12:22:11.965728,13.15549195,.00018922,87.9012,259.7196,98.4970,261.6375,0,U,48786,999,24392,-.20105385E-3,-.63E-6,0
ONEWEB-0210,2021-045W,2026-06-14T11:45:40.016736,13.15551309,.00011672,87.9011,259.7217,86.0155,274.1109,0,U,48787,999,24396,.45106729E-3,.183E-5,0
ONEWEB-0214,2021-045X,2026-06-14T06:29:40.035264,13.15548836,.0001832,87.9012,259.7619,89.8069,270.3271,0,U,48788,999,24390,.75177E-4,.41E-6,0
ONEWEB-0221,2021-045Y,2026-06-14T06:39:56.380032,13.15548382,.0001791,87.9012,259.7692,103.2931,256.8399,0,U,48789,999,24399,-.74835E-4,-.15E-6,0
ONEWEB-0213,2021-045Z,2026-06-14T11:52:31.058688,13.15547474,.00016767,87.9011,259.7294,101.8853,258.2466,0,U,48790,999,24408,.3621252E-3,.149E-5,0
ONEWEB-0212,2021-045AA,2026-06-14T13:08:58.138368,13.15550054,.00020392,87.9009,259.7132,101.6561,258.4799,0,U,48791,999,24408,.34564563E-3,.143E-5,0
ONEWEB-0227,2021-045AB,2026-06-14T13:07:50.186496,13.15549041,.00019156,87.9008,259.7142,102.9946,257.1398,0,U,48792,999,24403,.2827246E-3,.119E-5,0
ONEWEB-0226,2021-045AC,2026-06-14T12:58:41.344320,13.15550440,.00017127,87.9006,259.7202,98.8966,261.2359,0,U,48793,999,24400,.28802018E-3,.121E-5,0
ONEWEB-0224,2021-045AD,2026-06-14T06:37:38.300736,13.15547286,.0002298,87.9003,259.8067,123.2419,236.8932,0,U,48794,999,24389,.36862E-5,.14E-6,0
ONEWEB-0233,2021-045AE,2026-06-14T06:44:18.136608,13.15548378,.0001756,87.9001,259.8134,107.1840,252.9483,0,U,48795,999,24391,-.13327E-3,-.37E-6,0
ONEWEB-0190,2021-045AF,2026-06-14T06:26:13.700832,13.15547434,.0001312,87.9004,259.7779,108.6390,251.4883,0,U,48796,999,24398,.30663E-3,.128E-5,0
