ONEWEB-0211             
1 48767U 21045A   26165.60626310  .00000003  00000+0 -24927-4 0  9999
2 48767  87.9005 259.5964 0001825 121.5634 238.5675 13.16196652244108
ONEWEB-0223             
1 48768U 21045B   26165.22703933  .00000448  00000+0  11573-2 0  9998
2 48768  87.9005 259.7796 0001667 109.7952 250.3358 13.15546510244010
ONEWEB-0230             
1 48769U 21045C   26165.27456840  .00000040  00000+0  71872-4 0  9994
2 48769  87.9001 259.7838 0002032  95.7929 264.3433 13.15548434244284
ONEWEB-0237             
1 48770U 21045D   26165.49163603  .00000192  00000+0  47531-3 0  9994
2 48770  87.9001 259.7424 0001734 101.9165 258.2160 13.15547090244036
ONEWEB-0235             
1 48771U 21045E   26165.54235568  .00000117  00000+0  27714-3 0  9999
2 48771  87.9008 259.7178 0001609 107.6285 252.5021 13.15548436244035
ONEWEB-0242             
1 48772U 21045F   26165.53600004  .00000051  00000+0  10169-3 0  9993
2 48772  87.9010 259.7160 0001790  98.5375 261.5959 13.15547017244077
ONEWEB-0241             
1 48773U 21045G   26165.52334352 -.00000139  00000+0 -40374-3 0  9993
2 48773  87.8998 259.7370 0001801 113.0036 247.1285 13.15548871243985
ONEWEB-0243             
1 48774U 21045H   26165.55502885  .00000152  00000+0  37074-3 0  9991
2 48774  87.9001 259.7429 0001478  92.7893 267.3407 13.15548575244017
ONEWEB-0222             
1 48775U 21045J   26165.53838907  .00000094  00000+0  21477-3 0  9992
2 48775  87.9007 259.7137 0001813 106.2312 253.9018 13.15548596244056
ONEWEB-0244             
1 48776U 21045K   26165.48848003  .00000198  00000+0  49294-3 0  9997
2 48776  87.9015 259.7180 0001833 100.8745 259.2591 13.15548810244612
ONEWEB-0247             
1 48777U 21045L   26165.56136090  .00000162  00000+0  39560-3 0  9999
2 48777  87.9001 259.7362 0001130 101.3961 258.7297 13.15547437244066
ONEWEB-0245             
1 48778U 21045M   26165.55660714  .00000166  00000+0  40703-3 0  9999
2 48778  87.9010 259.7160 0001920 106.0670 254.0672 13.15547973244037
ONEWEB-0229             
1 48779U 21045N   26165.55185936  .00000168  00000+0  41323-3 0  9999
2 48779  87.9010 259.7150 0001842  98.4771 261.6568 13.15548789244063
ONEWEB-0228             
1 48780U 21045P   26165.28102743 -.00000058  00000+0 -18723-3 0  9994
2 48780  87.9015 259.7612 0001894 102.2457 257.8885 13.15546580243947
ONEWEB-0232             
1 48781U 21045Q   26165.55977101  .00000075  00000+0  16611-3 0  9994
2 48781  87.9013 259.7069 0001966 102.9246 257.2104 13.15549622244304
ONEWEB-0231             
1 48782U 21045R   26165.53759368  .00000048  00000+0  92433-4 0  9993
2 48782  87.9004 259.7245 0001791 105.8730 254.2598 13.15548586243993
ONEWEB-0234             
1 48783U 21045S   26165.27125944  .00000016  00000+0  83648-5 0  9996
2 48783  87.9011 259.7592 0002682 112.0487 248.0929 13.15549058244092
ONEWEB-0238             
1 48784U 21045T   26165.27152373  .00000054  00000+0  10845-3 0  9992
2 48784  87.9016 259.7534 0002295 107.6949 252.4432 13.15547079243994
ONEWEB-0240             
1 48785U 21045U   26165.52095359 -.00000102  00000+0 -30423-3 0  9991
2 48785  87.9014 259.7142 0001864 110.4500 249.6830 13.15547614244057
ONEWEB-0246             
1 48786U 21045V   26165.51541627 -.00000063  00000+0 -20105-3 0  9997
2 48786  87.9012 259.7196 0001892  98.4970 261.6375 13.15549195243921
ONEWEB-0210             
1 48787U 21045W   26165.49004649  .00000183  00000+0  45107-3 0  9993
2 48787  87.9011 259.7217 0001167  86.0155 274.1109 13.15551309243966
ONEWEB-0214             
1 48788U 21045X   26165.27060226  .00000041  00000+0  75177-4 0  9997
2 48788  87.9012 259.7619 0001832  89.8069 270.3271 13.15548836243901
ONEWEB-0221             
1 48789U 21045Y   26165.27773588 -.00000015  00000+0 -74835-4 0  9993
2 48789  87.9012 259.7692 0001791 103.2931 256.8399 13.15548382243991
ONEWEB-0213             
1 48790U 21045Z   26165.49480392  .00000149  00000+0  36213-3 0  9990
2 48790  87.9011 259.7294 0001676 101.8853 258.2466 13.15547474244082
ONEWEB-0212             
1 48791U 21045AA  26165.54789512  .00000143  00000+0  34565-3 0  9995
2 48791  87.9009 259.7132 0002039 101.6561 258.4799 13.15550054244088
ONEWEB-0227             
1 48792U 21045AB  26165.54710864  .00000119  00000+0  28272-3 0  9991
2 48792  87.9008 259.7142 0001915 102.9946 257.1398 13.15549041244032
ONEWEB-0226             
1 48793U 21045AC  26165.54075630  .00000121  00000+0  28802-3 0  9999
2 48793  87.9006 259.7202 0001712  98.8966 261.2359 13.15550440244003
ONEWEB-0224             
1 48794U 21045AD  26165.27613774  .00000014  00000+0  36862-5 0  9995
2 48794  87.9003 259.8067 0002298 123.2419 236.8932 13.15547286243892
ONEWEB-0233             
1 48795U 21045AE  26165.28076547 -.00000037  00000+0 -13327-3 0  9994
2 48795  87.9001 259.8134 0001756 107.1840 252.9483 13.15548378243919
ONEWEB-0190             
1 48796U 21045AF  26165.26821413  .00000128  00000+0  30663-3 0  9994
2 48796  87.9004 259.7779 0001312 108.6390 251.4883 13.15547434243988
